[{"OBJECT_NAME":"SL-8 R/B","OBJECT_ID":"1991-006B","EPOCH":"2026-03-10T19:09:50.164128","MEAN_MOTION":13.77494391,"ECCENTRICITY":0.0023015,"INCLINATION":82.9466,"RA_OF_ASC_NODE":169.2217,"ARG_OF_PERICENTER":35.2911,"MEAN_ANOMALY":85.1935,"EPHEMERIS_TYPE":0,"CLASSIFICATION_TYPE":"U","NORAD_CAT_ID":21088,"ELEMENT_SET_NO":999,"REV_AT_EPOCH":76422,"BSTAR":6.4914e-5,"MEAN_MOTION_DOT":8.0e-7,"MEAN_MOTION_DDOT":0},{"OBJECT_NAME":"OKEAN-3","OBJECT_ID":"1991-039A","EPOCH":"2026-03-10T19:25:35.336064","MEAN_MOTION":15.04815448,"ECCENTRICITY":0.0013858,"INCLINATION":82.5193,"RA_OF_ASC_NODE":335.759,"ARG_OF_PERICENTER":333.9632,"MEAN_ANOMALY":26.0896,"EPHEMERIS_TYPE":0,"CLASSIFICATION_TYPE":"U","NORAD_CAT_ID":21397,"ELEMENT_SET_NO":999,"REV_AT_EPOCH":86520,"BSTAR":0.00031097,"MEAN_MOTION_DOT":4.425e-5,"MEAN_MOTION_DDOT":0},{"OBJECT_NAME":"COSMOS 2151","OBJECT_ID":"1991-042A","EPOCH":"2026-03-10T19:36:55.431936","MEAN_MOTION":15.00108618,"ECCENTRICITY":0.0013963,"INCLINATION":82.493,"RA_OF_ASC_NODE":82.5882,"ARG_OF_PERICENTER":60.4873,"MEAN_ANOMALY":299.7742,"EPHEMERIS_TYPE":0,"CLASSIFICATION_TYPE":"U","NORAD_CAT_ID":21422,"ELEMENT_SET_NO":999,"REV_AT_EPOCH":86336,"BSTAR":0.00014798,"MEAN_MOTION_DOT":1.875e-5,"MEAN_MOTION_DDOT":0},{"OBJECT_NAME":"SL-14 R/B","OBJECT_ID":"1991-042B","EPOCH":"2026-03-10T20:06:56.521152","MEAN_MOTION":14.81830981,"ECCENTRICITY":0.0015842,"INCLINATION":82.4926,"RA_OF_ASC_NODE":219.1053,"ARG_OF_PERICENTER":234.58,"MEAN_ANOMALY":125.3936,"EPHEMERIS_TYPE":0,"CLASSIFICATION_TYPE":"U","NORAD_CAT_ID":21423,"ELEMENT_SET_NO":999,"REV_AT_EPOCH":85324,"BSTAR":7.6187e-5,"MEAN_MOTION_DOT":6.26e-6,"MEAN_MOTION_DDOT":0},{"OBJECT_NAME":"ERS-1","OBJECT_ID":"1991-050A","EPOCH":"2026-03-10T14:25:24.289248","MEAN_MOTION":14.39450183,"ECCENTRICITY":0.0031668,"INCLINATION":98.7881,"RA_OF_ASC_NODE":87.8585,"ARG_OF_PERICENTER":197.704,"MEAN_ANOMALY":162.3046,"EPHEMERIS_TYPE":0,"CLASSIFICATION_TYPE":"U","NORAD_CAT_ID":21574,"ELEMENT_SET_NO":999,"REV_AT_EPOCH":81586,"BSTAR":0.0001405,"MEAN_MOTION_DOT":3.94e-6,"MEAN_MOTION_DDOT":0},{"OBJECT_NAME":"ARIANE 40 R/B","OBJECT_ID":"1991-050F","EPOCH":"2026-03-10T17:15:30.714336","MEAN_MOTION":14.42894438,"ECCENTRICITY":0.0004282,"INCLINATION":98.201,"RA_OF_ASC_NODE":121.9168,"ARG_OF_PERICENTER":78.9883,"MEAN_ANOMALY":281.1789,"EPHEMERIS_TYPE":0,"CLASSIFICATION_TYPE":"U","NORAD_CAT_ID":21610,"ELEMENT_SET_NO":999,"REV_AT_EPOCH":81914,"BSTAR":0.00011974,"MEAN_MOTION_DOT":3.58e-6,"MEAN_MOTION_DDOT":0},{"OBJECT_NAME":"INTERCOSMOS 25","OBJECT_ID":"1991-086A","EPOCH":"2026-03-10T17:32:32.610336","MEAN_MOTION":12.12002432,"ECCENTRICITY":0.1486956,"INCLINATION":82.6045,"RA_OF_ASC_NODE":309.3793,"ARG_OF_PERICENTER":114.6888,"MEAN_ANOMALY":261.6131,"EPHEMERIS_TYPE":0,"CLASSIFICATION_TYPE":"U","NORAD_CAT_ID":21819,"ELEMENT_SET_NO":999,"REV_AT_EPOCH":49681,"BSTAR":0.00033753,"MEAN_MOTION_DOT":1.758e-5,"MEAN_MOTION_DDOT":0},{"OBJECT_NAME":"SL-8 R/B","OBJECT_ID":"1992-008B","EPOCH":"2026-03-10T14:16:55.187616","MEAN_MOTION":13.75969818,"ECCENTRICITY":0.0035623,"INCLINATION":82.9224,"RA_OF_ASC_NODE":267.1047,"ARG_OF_PERICENTER":130.8137,"MEAN_ANOMALY":293.6371,"EPHEMERIS_TYPE":0,"CLASSIFICATION_TYPE":"U","NORAD_CAT_ID":21876,"ELEMENT_SET_NO":999,"REV_AT_EPOCH":70954,"BSTAR":-2.4697e-6,"MEAN_MOTION_DOT":1.3e-7,"MEAN_MOTION_DDOT":0},{"OBJECT_NAME":"SL-8 R/B","OBJECT_ID":"1992-020B","EPOCH":"2026-03-10T08:22:00.761088","MEAN_MOTION":13.75549547,"ECCENTRICITY":0.0027686,"INCLINATION":82.9336,"RA_OF_ASC_NODE":153.2725,"ARG_OF_PERICENTER":296.8725,"MEAN_ANOMALY":132.8821,"EPHEMERIS_TYPE":0,"CLASSIFICATION_TYPE":"U","NORAD_CAT_ID":21938,"ELEMENT_SET_NO":999,"REV_AT_EPOCH":70122,"BSTAR":5.5233e-5,"MEAN_MOTION_DOT":6.8e-7,"MEAN_MOTION_DDOT":0},{"OBJECT_NAME":"USA 81","OBJECT_ID":"1992-023A","EPOCH":"2026-03-10T03:32:50.760672","MEAN_MOTION":14.32368178,"ECCENTRICITY":0.00024437,"INCLINATION":85.0084,"RA_OF_ASC_NODE":131.1769,"ARG_OF_PERICENTER":77.2317,"MEAN_ANOMALY":282.9149,"EPHEMERIS_TYPE":0,"CLASSIFICATION_TYPE":"U","NORAD_CAT_ID":21949,"ELEMENT_SET_NO":999,"REV_AT_EPOCH":9485,"BSTAR":6.5422512e-5,"MEAN_MOTION_DOT":1.97e-6,"MEAN_MOTION_DDOT":0},{"OBJECT_NAME":"COSMOS 2219","OBJECT_ID":"1992-076A","EPOCH":"2026-03-10T20:45:38.000160","MEAN_MOTION":14.14092907,"ECCENTRICITY":0.0018938,"INCLINATION":71.0637,"RA_OF_ASC_NODE":15.6104,"ARG_OF_PERICENTER":205.4303,"MEAN_ANOMALY":154.5889,"EPHEMERIS_TYPE":0,"CLASSIFICATION_TYPE":"U","NORAD_CAT_ID":22219,"ELEMENT_SET_NO":999,"REV_AT_EPOCH":71854,"BSTAR":7.0263e-5,"MEAN_MOTION_DOT":8.7e-7,"MEAN_MOTION_DDOT":0},{"OBJECT_NAME":"SL-16 R/B","OBJECT_ID":"1992-076B","EPOCH":"2026-03-10T14:54:15.344352","MEAN_MOTION":14.16859465,"ECCENTRICITY":0.0010456,"INCLINATION":71.0008,"RA_OF_ASC_NODE":186.4119,"ARG_OF_PERICENTER":94.7272,"MEAN_ANOMALY":0.275,"EPHEMERIS_TYPE":0,"CLASSIFICATION_TYPE":"U","NORAD_CAT_ID":22220,"ELEMENT_SET_NO":999,"REV_AT_EPOCH":72196,"BSTAR":-6.2133e-5,"MEAN_MOTION_DOT":-1.72e-6,"MEAN_MOTION_DDOT":0},{"OBJECT_NAME":"COSMOS 2221","OBJECT_ID":"1992-080A","EPOCH":"2026-03-10T15:22:22.128096","MEAN_MOTION":14.96204496,"ECCENTRICITY":0.0014131,"INCLINATION":82.5011,"RA_OF_ASC_NODE":278.17,"ARG_OF_PERICENTER":183.6679,"MEAN_ANOMALY":176.4442,"EPHEMERIS_TYPE":0,"CLASSIFICATION_TYPE":"U","NORAD_CAT_ID":22236,"ELEMENT_SET_NO":999,"REV_AT_EPOCH":78093,"BSTAR":0.00019965,"MEAN_MOTION_DOT":2.28e-5,"MEAN_MOTION_DDOT":0},{"OBJECT_NAME":"SL-16 R/B","OBJECT_ID":"1992-093B","EPOCH":"2026-03-10T20:53:07.154016","MEAN_MOTION":14.15447536,"ECCENTRICITY":0.0006392,"INCLINATION":71.0241,"RA_OF_ASC_NODE":1.7876,"ARG_OF_PERICENTER":292.468,"MEAN_ANOMALY":67.5765,"EPHEMERIS_TYPE":0,"CLASSIFICATION_TYPE":"U","NORAD_CAT_ID":22285,"ELEMENT_SET_NO":999,"REV_AT_EPOCH":71332,"BSTAR":-7.454e-5,"MEAN_MOTION_DOT":-1.93e-6,"MEAN_MOTION_DDOT":0},{"OBJECT_NAME":"COSMOS 2228","OBJECT_ID":"1992-094A","EPOCH":"2026-03-10T20:33:44.551296","MEAN_MOTION":14.97196684,"ECCENTRICITY":0.0016755,"INCLINATION":82.5159,"RA_OF_ASC_NODE":236.1927,"ARG_OF_PERICENTER":300.568,"MEAN_ANOMALY":59.3889,"EPHEMERIS_TYPE":0,"CLASSIFICATION_TYPE":"U","NORAD_CAT_ID":22286,"ELEMENT_SET_NO":999,"REV_AT_EPOCH":77623,"BSTAR":0.00025328,"MEAN_MOTION_DOT":2.961e-5,"MEAN_MOTION_DDOT":0},{"OBJECT_NAME":"SL-16 R/B","OBJECT_ID":"1993-016B","EPOCH":"2026-03-10T20:09:43.346592","MEAN_MOTION":14.1530906,"ECCENTRICITY":0.0011877,"INCLINATION":71.0075,"RA_OF_ASC_NODE":212.7642,"ARG_OF_PERICENTER":312.5676,"MEAN_ANOMALY":47.4444,"EPHEMERIS_TYPE":0,"CLASSIFICATION_TYPE":"U","NORAD_CAT_ID":22566,"ELEMENT_SET_NO":999,"REV_AT_EPOCH":70233,"BSTAR":5.728e-5,"MEAN_MOTION_DOT":6.4e-7,"MEAN_MOTION_DDOT":0},{"OBJECT_NAME":"COSMOS 2242","OBJECT_ID":"1993-024A","EPOCH":"2026-03-10T15:19:56.625312","MEAN_MOTION":14.9655341,"ECCENTRICITY":0.0015123,"INCLINATION":82.5156,"RA_OF_ASC_NODE":265.8084,"ARG_OF_PERICENTER":305.4167,"MEAN_ANOMALY":54.5642,"EPHEMERIS_TYPE":0,"CLASSIFICATION_TYPE":"U","NORAD_CAT_ID":22626,"ELEMENT_SET_NO":999,"REV_AT_EPOCH":78053,"BSTAR":0.00018948,"MEAN_MOTION_DOT":2.185e-5,"MEAN_MOTION_DDOT":0}]
