SL-8 R/B                
1 21088U 91006B   26069.79849727  .00000080  00000+0  64914-4 0  9996
2 21088  82.9466 169.2217 0023015  35.2911  85.1935 13.77494391764226
OKEAN-3                 
1 21397U 91039A   26069.80943676  .00004425  00000+0  31097-3 0  9997
2 21397  82.5193 335.7590 0013858 333.9632  26.0896 15.04815448865200
COSMOS 2151             
1 21422U 91042A   26069.81730824  .00001875  00000+0  14798-3 0  9995
2 21422  82.4930  82.5882 0013963  60.4873 299.7742 15.00108618863368
SL-14 R/B               
1 21423U 91042B   26069.83815418  .00000626  00000+0  76187-4 0  9995
2 21423  82.4926 219.1053 0015842 234.5800 125.3936 14.81830981853242
ERS-1                   
1 21574U 91050A   26069.60097557  .00000394  00000+0  14050-3 0  9994
2 21574  98.7881  87.8585 0031668 197.7040 162.3046 14.39450183815863
ARIANE 40 R/B           
1 21610U 91050F   26069.71910549  .00000358  00000+0  11974-3 0  9994
2 21610  98.2010 121.9168 0004282  78.9883 281.1789 14.42894438819145
INTERCOSMOS 25          
1 21819U 91086A   26069.73093299  .00001758  00000+0  33753-3 0  9994
2 21819  82.6045 309.3793 1486956 114.6888 261.6131 12.12002432496812
SL-8 R/B                
1 21876U 92008B   26069.59508319  .00000013  00000+0 -24697-5 0  9993
2 21876  82.9224 267.1047 0035623 130.8137 293.6371 13.75969818709545
SL-8 R/B                
1 21938U 92020B   26069.34861992  .00000068  00000+0  55233-4 0  9996
2 21938  82.9336 153.2725 0027686 296.8725 132.8821 13.75549547701226
USA 81                  
1 21949U 92023A   26069.14780973  .00000197  00000+0  65423-4 0  9993
2 21949  85.0084 131.1769 0002443  77.2317 282.9149 14.32368178 94854
COSMOS 2219             
1 22219U 92076A   26069.86502315  .00000087  00000+0  70263-4 0  9999
2 22219  71.0637  15.6104 0018938 205.4303 154.5889 14.14092907718547
SL-16 R/B               
1 22220U 92076B   26069.62101093 -.00000172  00000+0 -62133-4 0  9997
2 22220  71.0008 186.4119 0010456  94.7272   0.2750 14.16859465721961
COSMOS 2221             
1 22236U 92080A   26069.64053389  .00002280  00000+0  19965-3 0  9999
2 22236  82.5011 278.1700 0014131 183.6679 176.4442 14.96204496780939
SL-16 R/B               
1 22285U 92093B   26069.87022169 -.00000193  00000+0 -74540-4 0  9998
2 22285  71.0241   1.7876 0006392 292.4680  67.5765 14.15447536713328
COSMOS 2228             
1 22286U 92094A   26069.85676564  .00002961  00000+0  25328-3 0  9994
2 22286  82.5159 236.1927 0016755 300.5680  59.3889 14.97196684776230
SL-16 R/B               
1 22566U 93016B   26069.84008503  .00000064  00000+0  57280-4 0  9996
2 22566  71.0075 212.7642 0011877 312.5676  47.4444 14.15309060702332
COSMOS 2242             
1 22626U 93024A   26069.63884983  .00002185  00000+0  18948-3 0  9996
2 22626  82.5156 265.8084 0015123 305.4167  54.5642 14.96553410780535
